{
  "type": "FeatureCollection",
  "features": [
    {
      "type": "Feature",
      "properties": {
        "norad_id": 65731,
        "name": "1998-067XK",
        "group": "stations",
        "lat": -10.67203464181471,
        "lon": -32.06127827217003,
        "alt_km": 371.0316181923354,
        "timestamp": "2025-12-12T07:43:19.278638+00:00",
        "meta_object_name": "1998-067XK",
        "meta_object_id": "1998-067XK",
        "meta_epoch": "2025-12-11T10:58:56.610624",
        "meta_mean_motion": 15.65405996,
        "meta_eccentricity": 0.00051121,
        "meta_inclination": 51.6282,
        "meta_ra_of_asc_node": 143.7363,
        "meta_arg_of_pericenter": 237.7502,
        "meta_mean_anomaly": 122.2999,
        "meta_ephemeris_type": 0,
        "meta_classification_type": "U",
        "meta_norad_cat_id": 65731,
        "meta_element_set_no": 999,
        "meta_rev_at_epoch": 1294,
        "meta_bstar": 0.0014701886,
        "meta_mean_motion_dot": 0.00152029,
        "meta_mean_motion_ddot": 0,
        "tle_line1": "1 65731U 98067XK  25345.45759966  .00152029  00000+0  14702-2 0  9996",
        "tle_line2": "2 65731  51.6282 143.7363 0005112 237.7502 122.2999 15.65405996 12940"
      },
      "geometry": {
        "type": "Point",
        "coordinates": [
          -32.06127827217003,
          -10.67203464181471
        ]
      }
    },
    {
      "type": "Feature",
      "properties": {
        "norad_id": 65732,
        "name": "RSP-03",
        "group": "stations",
        "lat": 14.212310634654093,
        "lon": -52.919026414232874,
        "alt_km": 361.44534833920534,
        "timestamp": "2025-12-12T07:43:19.278649+00:00",
        "meta_object_name": "RSP-03",
        "meta_object_id": "1998-067XL",
        "meta_epoch": "2025-12-11T11:09:18.310464",
        "meta_mean_motion": 15.68184189,
        "meta_eccentricity": 0.00058259,
        "meta_inclination": 51.626,
        "meta_ra_of_asc_node": 143.0256,
        "meta_arg_of_pericenter": 242.1359,
        "meta_mean_anomaly": 117.9048,
        "meta_ephemeris_type": 0,
        "meta_classification_type": "U",
        "meta_norad_cat_id": 65732,
        "meta_element_set_no": 999,
        "meta_rev_at_epoch": 1296,
        "meta_bstar": 0.0016947067,
        "meta_mean_motion_dot": 0.00197326,
        "meta_mean_motion_ddot": 0,
        "tle_line1": "1 65732U 98067XL  25345.46479526  .00197326  00000+0  16947-2 0  9991",
        "tle_line2": "2 65732  51.6260 143.0256 0005825 242.1359 117.9048 15.68184189 12961"
      },
      "geometry": {
        "type": "Point",
        "coordinates": [
          -52.919026414232874,
          14.212310634654093
        ]
      }
    },
    {
      "type": "Feature",
      "properties": {
        "norad_id": 65733,
        "name": "GHS-01",
        "group": "stations",
        "lat": 47.33077361043206,
        "lon": -163.37252822532602,
        "alt_km": 343.6633263757376,
        "timestamp": "2025-12-12T07:43:19.278659+00:00",
        "meta_object_name": "GHS-01",
        "meta_object_id": "1998-067XM",
        "meta_epoch": "2025-12-11T17:42:59.976288",
        "meta_mean_motion": 15.74255219,
        "meta_eccentricity": 0.0007045,
        "meta_inclination": 51.6266,
        "meta_ra_of_asc_node": 140.35,
        "meta_arg_of_pericenter": 274.7166,
        "meta_mean_anomaly": 85.3028,
        "meta_ephemeris_type": 0,
        "meta_classification_type": "U",
        "meta_norad_cat_id": 65733,
        "meta_element_set_no": 999,
        "meta_rev_at_epoch": 1302,
        "meta_bstar": 0.0015474625,
        "meta_mean_motion_dot": 0.002337,
        "meta_mean_motion_ddot": 0,
        "tle_line1": "1 65733U 98067XM  25345.73819417  .00233700  00000+0  15475-2 0  9991",
        "tle_line2": "2 65733  51.6266 140.3500 0007045 274.7166  85.3028 15.74255219 13027"
      },
      "geometry": {
        "type": "Point",
        "coordinates": [
          -163.37252822532602,
          47.33077361043206
        ]
      }
    },
    {
      "type": "Feature",
      "properties": {
        "norad_id": 65941,
        "name": "YOTSUBA-KULOVER",
        "group": "stations",
        "lat": -27.45809986014143,
        "lon": 117.76376042560858,
        "alt_km": 392.8386117614582,
        "timestamp": "2025-12-12T07:43:19.278670+00:00",
        "meta_object_name": "YOTSUBA-KULOVER",
        "meta_object_id": "1998-067XN",
        "meta_epoch": "2025-12-11T19:34:16.498272",
        "meta_mean_motion": 15.59284629,
        "meta_eccentricity": 0.00014791,
        "meta_inclination": 51.6283,
        "meta_ra_of_asc_node": 144.6232,
        "meta_arg_of_pericenter": 240.6156,
        "meta_mean_anomaly": 119.469,
        "meta_ephemeris_type": 0,
        "meta_classification_type": "U",
        "meta_norad_cat_id": 65941,
        "meta_element_set_no": 999,
        "meta_rev_at_epoch": 971,
        "meta_bstar": 0.00099850147,
        "meta_mean_motion_dot": 0.00080384,
        "meta_mean_motion_ddot": 0,
        "tle_line1": "1 65941U 98067XN  25345.81546873  .00080384  00000+0  99850-3 0  9992",
        "tle_line2": "2 65941  51.6283 144.6232 0001479 240.6156 119.4690 15.59284629  9717"
      },
      "geometry": {
        "type": "Point",
        "coordinates": [
          117.76376042560858,
          -27.45809986014143
        ]
      }
    },
    {
      "type": "Feature",
      "properties": {
        "norad_id": 65942,
        "name": "BOTAN",
        "group": "stations",
        "lat": -48.39754887188297,
        "lon": 78.22777922415968,
        "alt_km": 383.0162297023653,
        "timestamp": "2025-12-12T07:43:19.278681+00:00",
        "meta_object_name": "BOTAN",
        "meta_object_id": "1998-067XP",
        "meta_epoch": "2025-12-11T19:45:11.743776",
        "meta_mean_motion": 15.62613075,
        "meta_eccentricity": 0.00032624,
        "meta_inclination": 51.6277,
        "meta_ra_of_asc_node": 143.9237,
        "meta_arg_of_pericenter": 230.4423,
        "meta_mean_anomaly": 129.6283,
        "meta_ephemeris_type": 0,
        "meta_classification_type": "U",
        "meta_norad_cat_id": 65942,
        "meta_element_set_no": 999,
        "meta_rev_at_epoch": 972,
        "meta_bstar": 0.0013163982,
        "meta_mean_motion_dot": 0.00121329,
        "meta_mean_motion_ddot": 0,
        "tle_line1": "1 65942U 98067XP  25345.82305259  .00121329  00000+0  13164-2 0  9993",
        "tle_line2": "2 65942  51.6277 143.9237 0003262 230.4423 129.6283 15.62613075  9721"
      },
      "geometry": {
        "type": "Point",
        "coordinates": [
          78.22777922415968,
          -48.39754887188297
        ]
      }
    },
    {
      "type": "Feature",
      "properties": {
        "norad_id": 65943,
        "name": "E-KAGAKU-1",
        "group": "stations",
        "lat": -27.284655987372076,
        "lon": 117.94724468850971,
        "alt_km": 394.8305551222493,
        "timestamp": "2025-12-12T07:43:19.278691+00:00",
        "meta_object_name": "E-KAGAKU-1",
        "meta_object_id": "1998-067XQ",
        "meta_epoch": "2025-12-10T06:39:08.237952",
        "meta_mean_motion": 15.5900432,
        "meta_eccentricity": 0.00052507,
        "meta_inclination": 51.6298,
        "meta_ra_of_asc_node": 152.3458,
        "meta_arg_of_pericenter": 191.2269,
        "meta_mean_anomaly": 168.8608,
        "meta_ephemeris_type": 0,
        "meta_classification_type": "U",
        "meta_norad_cat_id": 65943,
        "meta_element_set_no": 999,
        "meta_rev_at_epoch": 947,
        "meta_bstar": 0.0012588803,
        "meta_mean_motion_dot": 0.00100705,
        "meta_mean_motion_ddot": 0,
        "tle_line1": "1 65943U 98067XQ  25344.27717868  .00100705  00000+0  12589-2 0  9990",
        "tle_line2": "2 65943  51.6298 152.3458 0005250 191.2269 168.8608 15.59004320  9476"
      },
      "geometry": {
        "type": "Point",
        "coordinates": [
          117.94724468850971,
          -27.284655987372076
        ]
      }
    },
    {
      "type": "Feature",
      "properties": {
        "norad_id": 66052,
        "name": "HRC MONOBLOCK CAMERA",
        "group": "stations",
        "lat": -33.135834752619836,
        "lon": 112.44422383941858,
        "alt_km": 410.3140969699607,
        "timestamp": "2025-12-12T07:43:19.278701+00:00",
        "meta_object_name": "HRC MONOBLOCK CAMERA",
        "meta_object_id": "1998-067XR",
        "meta_epoch": "2025-12-11T22:39:06.959520",
        "meta_mean_motion": 15.54045503,
        "meta_eccentricity": 0.00034494,
        "meta_inclination": 51.6287,
        "meta_ra_of_asc_node": 145.4758,
        "meta_arg_of_pericenter": 180.1091,
        "meta_mean_anomaly": 179.9899,
        "meta_ephemeris_type": 0,
        "meta_classification_type": "U",
        "meta_norad_cat_id": 66052,
        "meta_element_set_no": 999,
        "meta_rev_at_epoch": 871,
        "meta_bstar": 0.00072087374,
        "meta_mean_motion_dot": 0.00047388,
        "meta_mean_motion_ddot": 0,
        "tle_line1": "1 66052U 98067XR  25345.94383055  .00047388  00000+0  72087-3 0  9991",
        "tle_line2": "2 66052  51.6287 145.4758 0003449 180.1091 179.9899 15.54045503  8714"
      },
      "geometry": {
        "type": "Point",
        "coordinates": [
          112.44422383941858,
          -33.135834752619836
        ]
      }
    }
  ]
}